{"spkid": "54576623", "covariance": {"epoch": "2459156.5", "data": [["3.554120135285781E-15", "-6.009064556241882E-15", "-9.835106032188773E-14", "3.114860135210716E-14", "-2.276265266767887E-13", "4.391130644804141E-14"], ["-6.009064556241882E-15", "1.019470876134317E-14", "2.911200896933343E-13", "-5.953748595823256E-14", "4.23338023737348E-13", "-7.818216477548897E-14"], ["-9.835106032188773E-14", "2.911200896933343E-13", "1.02981868589145E-9", "-1.385099608235607E-10", "4.369870561339887E-10", "-2.750373396065992E-11"], ["3.114860135210716E-14", "-5.953748595823256E-14", "-1.385099608235607E-10", "3.197307247054792E-10", "-3.452545232097481E-10", "-3.007424433497204E-11"], ["-2.276265266767887E-13", "4.23338023737348E-13", "4.369870561339887E-10", "-3.452545232097481E-10", "4.824730129485193E-10", "1.928766632149464E-11"], ["4.391130644804141E-14", "-7.818216477548897E-14", "-2.750373396065992E-11", "-3.007424433497204E-11", "1.928766632149464E-11", "3.922817618267307E-11"]], "elements": [{"value": ".3804960315567267", "title": "eccentricity", "units": null, "name": "e", "sigma": 5.96164418200699e-08, "label": "e"}, {"value": "1.044405521381282", "title": "perihelion distance", "units": "au", "sigma": 1.00968850450736e-07, "name": "q", "label": "q"}, {"label": "tp", "units": "TDB", "value": "2459295.406627192561", "title": "time of perihelion passage", "name": "tp", "sigma": 3.20907881780964e-05}, {"units": "deg", "title": "longitude of the ascending node", "value": "24.73938791838594", "sigma": 1.78810157626875e-05, "name": "om", "label": "node"}, {"units": "deg", "title": "argument of perihelion", "value": "357.5048613656514", "name": "w", "sigma": 2.19652683331782e-05, "label": "peri"}, {"name": "i", "sigma": 6.26324007065617e-06, "title": "inclination", "value": "17.26132161552968", "units": "deg", "label": "i"}], "labels": ["e", "q", "tp", "node", "peri", "i"]}, "elements": [{"name": "e", "sigma": "5.9597E-8", "units": null, "title": "eccentricity", "value": ".3805687977801349", "label": "e"}, {"sigma": "9.6055E-9", "name": "a", "units": "au", "value": "1.685725862661773", "title": "semi-major axis", "label": "a"}, {"label": "q", "name": "q", "sigma": "1.009E-7", "units": "au", "title": "perihelion distance", "value": "1.044191197721701"}, {"label": "i", "name": "i", "sigma": "6.2637E-6", "title": "inclination; angle with respect to x-y ecliptic plane", "value": "17.26242468404492", "units": "deg"}, {"sigma": "1.7879E-5", "name": "om", "units": "deg", "value": "24.71231236188149", "title": "longitude of the ascending node", "label": "node"}, {"sigma": "2.1962E-5", "name": "w", "title": "argument of perihelion", "value": "357.5619630218509", "units": "deg", "label": "peri"}, {"sigma": "2.0042E-5", "name": "ma", "title": "mean anomaly", "value": "137.7948667123926", "units": "deg", "label": "M"}, {"label": "tp", "name": "tp", "sigma": "4.233E-5", "units": "TDB", "value": "2460894.508480699364", "title": "time of perihelion passage"}, {"label": "period", "title": "sidereal orbital period", "value": "799.42707283973", "units": "d", "sigma": "6.8329E-6", "name": "per"}, {"sigma": "3.849E-9", "name": "n", "title": "mean motion", "value": ".4503225024906971", "units": "deg/d", "label": "n"}, {"label": "Q", "sigma": "1.3261E-8", "name": "ad", "units": "au", "value": "2.327260527601845", "title": "aphelion distance"}], "epoch": "2461200.5"}